{"type": "FeatureCollection", "features": [{"type": "Feature", "properties": {"norad_id": 36828, "name": "BEIDOU-2 IGSO-1 (C06)", "group": "beidou", "lat": 37.462806513319016, "lon": -48.814718619515695, "alt_km": 35758.32806642186, "timestamp": "2025-12-05T07:38:19.110608+00:00", "meta": {"OBJECT_NAME": "BEIDOU-2 IGSO-1 (C06)", "OBJECT_ID": "2010-036A", "EPOCH": "2025-12-04T10:48:55.401408", "MEAN_MOTION": 1.0027836, "ECCENTRICITY": 0.0051251, "INCLINATION": 54.2839, "RA_OF_ASC_NODE": 164.7233, "ARG_OF_PERICENTER": 215.778, "MEAN_ANOMALY": 323.0243, "EPHEMERIS_TYPE": 0, "CLASSIFICATION_TYPE": "U", "NORAD_CAT_ID": 36828, "ELEMENT_SET_NO": 999, "REV_AT_EPOCH": 5614, "BSTAR": 0, "MEAN_MOTION_DOT": -3.3e-07, "MEAN_MOTION_DDOT": 0}, "tle": {"line1": "1 36828U 10036A   25338.45064122 -.00000033  00000+0  00000+0 0  9997", "line2": "2 36828  54.2839 164.7233 0051251 215.7780 323.0243  1.00278360 56140"}}, "geometry": {"type": "Point", "coordinates": [-48.814718619515695, 37.462806513319016]}}, {"type": "Feature", "properties": {"norad_id": 37210, "name": "BEIDOU-2 G4 (C04)", "group": "beidou", "lat": -3.117501605855589, "lon": -10.843738363161256, "alt_km": 35786.86994561455, "timestamp": "2025-12-05T07:38:19.110631+00:00", "meta": {"OBJECT_NAME": "BEIDOU-2 G4 (C04)", "OBJECT_ID": "2010-057A", "EPOCH": "2025-12-04T16:11:57.897024", "MEAN_MOTION": 1.00271291, "ECCENTRICITY": 0.0010952, "INCLINATION": 3.1633, "RA_OF_ASC_NODE": 69.9584, "ARG_OF_PERICENTER": 188.8835, "MEAN_ANOMALY": 217.9649, "EPHEMERIS_TYPE": 0, "CLASSIFICATION_TYPE": "U", "NORAD_CAT_ID": 37210, "ELEMENT_SET_NO": 999, "REV_AT_EPOCH": 5534, "BSTAR": 0, "MEAN_MOTION_DOT": -9.9e-07, "MEAN_MOTION_DDOT": 0}, "tle": {"line1": "1 37210U 10057A   25338.67497566 -.00000099  00000+0  00000+0 0  9994", "line2": "2 37210   3.1633  69.9584 0010952 188.8835 217.9649  1.00271291 55348"}}, "geometry": {"type": "Point", "coordinates": [-10.843738363161256, -3.117501605855589]}}, {"type": "Feature", "properties": {"norad_id": 37256, "name": "BEIDOU-2 IGSO-2 (C07)", "group": "beidou", "lat": 16.240165200469477, "lon": -70.56128187792531, "alt_km": 35980.83094666102, "timestamp": "2025-12-05T07:38:19.110646+00:00", "meta": {"OBJECT_NAME": "BEIDOU-2 IGSO-2 (C07)", "OBJECT_ID": "2010-068A", "EPOCH": "2025-12-03T17:22:36.030432", "MEAN_MOTION": 1.0028871, "ECCENTRICITY": 0.00492335, "INCLINATION": 47.9043, "RA_OF_ASC_NODE": 274.2613, "ARG_OF_PERICENTER": 216.1442, "MEAN_ANOMALY": 310.2369, "EPHEMERIS_TYPE": 0, "CLASSIFICATION_TYPE": "U", "NORAD_CAT_ID": 37256, "ELEMENT_SET_NO": 999, "REV_AT_EPOCH": 5483, "BSTAR": 0, "MEAN_MOTION_DOT": -2.25e-06, "MEAN_MOTION_DDOT": 0}, "tle": {"line1": "1 37256U 10068A   25337.72402813 -.00000225  00000+0  00000+0 0  9993", "line2": "2 37256  47.9043 274.2613 0049233 216.1442 310.2369  1.00288710 54839"}}, "geometry": {"type": "Point", "coordinates": [-70.56128187792531, 16.240165200469477]}}, {"type": "Feature", "properties": {"norad_id": 37384, "name": "BEIDOU-2 IGSO-3 (C08)", "group": "beidou", "lat": -58.65207468832511, "lon": -77.87703730493813, "alt_km": 35736.910411385266, "timestamp": "2025-12-05T07:38:19.110659+00:00", "meta": {"OBJECT_NAME": "BEIDOU-2 IGSO-3 (C08)", "OBJECT_ID": "2011-013A", "EPOCH": "2025-12-03T14:52:09.520896", "MEAN_MOTION": 1.00272128, "ECCENTRICITY": 0.00353922, "INCLINATION": 62.1308, "RA_OF_ASC_NODE": 42.005, "ARG_OF_PERICENTER": 186.5359, "MEAN_ANOMALY": 174.9093, "EPHEMERIS_TYPE": 0, "CLASSIFICATION_TYPE": "U", "NORAD_CAT_ID": 37384, "ELEMENT_SET_NO": 999, "REV_AT_EPOCH": 5370, "BSTAR": 0, "MEAN_MOTION_DOT": -1.99e-06, "MEAN_MOTION_DDOT": 0}, "tle": {"line1": "1 37384U 11013A   25337.61955464 -.00000199  00000+0  00000+0 0  9999", "line2": "2 37384  62.1308  42.0050 0035392 186.5359 174.9093  1.00272128 53708"}}, "geometry": {"type": "Point", "coordinates": [-77.87703730493813, -58.65207468832511]}}, {"type": "Feature", "properties": {"norad_id": 37763, "name": "BEIDOU-2 IGSO-4 (C09)", "group": "beidou", "lat": 48.00272281173253, "lon": -64.94231621810827, "alt_km": 36047.46469116532, "timestamp": "2025-12-05T07:38:19.110672+00:00", "meta": {"OBJECT_NAME": "BEIDOU-2 IGSO-4 (C09)", "OBJECT_ID": "2011-038A", "EPOCH": "2025-12-01T12:32:09.960864", "MEAN_MOTION": 1.00284074, "ECCENTRICITY": 0.01487808, "INCLINATION": 54.5808, "RA_OF_ASC_NODE": 167.4476, "ARG_OF_PERICENTER": 230.2031, "MEAN_ANOMALY": 315.0387, "EPHEMERIS_TYPE": 0, "CLASSIFICATION_TYPE": "U", "NORAD_CAT_ID": 37763, "ELEMENT_SET_NO": 999, "REV_AT_EPOCH": 5266, "BSTAR": 0, "MEAN_MOTION_DOT": 1.01e-06, "MEAN_MOTION_DDOT": 0}, "tle": {"line1": "1 37763U 11038A   25335.52233751  .00000101  00000+0  00000+0 0  9995", "line2": "2 37763  54.5808 167.4476 0148780 230.2031 315.0387  1.00284074 52664"}}, "geometry": {"type": "Point", "coordinates": [-64.94231621810827, 48.00272281173253]}}, {"type": "Feature", "properties": {"norad_id": 37948, "name": "BEIDOU-2 IGSO-5 (C10)", "group": "beidou", "lat": 6.121029053302446, "lon": -80.5622991982056, "alt_km": 36164.9345753178, "timestamp": "2025-12-05T07:38:19.110684+00:00", "meta": {"OBJECT_NAME": "BEIDOU-2 IGSO-5 (C10)", "OBJECT_ID": "2011-073A", "EPOCH": "2025-12-03T19:19:36.726816", "MEAN_MOTION": 1.00292258, "ECCENTRICITY": 0.01106709, "INCLINATION": 48.0381, "RA_OF_ASC_NODE": 273.9687, "ARG_OF_PERICENTER": 222.1681, "MEAN_ANOMALY": 319.0723, "EPHEMERIS_TYPE": 0, "CLASSIFICATION_TYPE": "U", "NORAD_CAT_ID": 37948, "ELEMENT_SET_NO": 999, "REV_AT_EPOCH": 5117, "BSTAR": 0, "MEAN_MOTION_DOT": -1.77e-06, "MEAN_MOTION_DDOT": 0}, "tle": {"line1": "1 37948U 11073A   25337.80528619 -.00000177  00000+0  00000+0 0  9996", "line2": "2 37948  48.0381 273.9687 0110670 222.1681 319.0723  1.00292258 51174"}}, "geometry": {"type": "Point", "coordinates": [-80.5622991982056, 6.121029053302446]}}, {"type": "Feature", "properties": {"norad_id": 38091, "name": "BEIDOU-2 G5 (C05)", "group": "beidou", "lat": 0.14468434680946335, "lon": -112.44616640552368, "alt_km": 35751.10088364093, "timestamp": "2025-12-05T07:38:19.110696+00:00", "meta": {"OBJECT_NAME": "BEIDOU-2 G5 (C05)", "OBJECT_ID": "2012-008A", "EPOCH": "2025-12-04T17:25:50.820960", "MEAN_MOTION": 1.00272702, "ECCENTRICITY": 0.0012417, "INCLINATION": 3.088, "RA_OF_ASC_NODE": 70.7318, "ARG_OF_PERICENTER": 225.7173, "MEAN_ANOMALY": 97.5153, "EPHEMERIS_TYPE": 0, "CLASSIFICATION_TYPE": "U", "NORAD_CAT_ID": 38091, "ELEMENT_SET_NO": 999, "REV_AT_EPOCH": 5041, "BSTAR": 0, "MEAN_MOTION_DOT": 6.9e-07, "MEAN_MOTION_DDOT": 0}, "tle": {"line1": "1 38091U 12008A   25338.72628265  .00000069  00000+0  00000+0 0  9994", "line2": "2 38091   3.0880  70.7318 0012417 225.7173  97.5153  1.00272702 50411"}}, "geometry": {"type": "Point", "coordinates": [-112.44616640552368, 0.14468434680946335]}}, {"type": "Feature", "properties": {"norad_id": 38250, "name": "BEIDOU-2 M3 (C11)", "group": "beidou", "lat": -15.733993811491573, "lon": -59.60177309100928, "alt_km": 21503.6885523208, "timestamp": "2025-12-05T07:38:19.110707+00:00", "meta": {"OBJECT_NAME": "BEIDOU-2 M3 (C11)", "OBJECT_ID": "2012-018A", "EPOCH": "2025-12-04T06:32:53.001888", "MEAN_MOTION": 1.86229694, "ECCENTRICITY": 0.0024462, "INCLINATION": 55.9274, "RA_OF_ASC_NODE": 311.4423, "ARG_OF_PERICENTER": 273.73, "MEAN_ANOMALY": 85.9745, "EPHEMERIS_TYPE": 0, "CLASSIFICATION_TYPE": "U", "NORAD_CAT_ID": 38250, "ELEMENT_SET_NO": 999, "REV_AT_EPOCH": 9231, "BSTAR": 0, "MEAN_MOTION_DOT": -6.8e-07, "MEAN_MOTION_DDOT": 0}, "tle": {"line1": "1 38250U 12018A   25338.27283567 -.00000068  00000+0  00000+0 0  9994", "line2": "2 38250  55.9274 311.4423 0024462 273.7300  85.9745  1.86229694 92310"}}, "geometry": {"type": "Point", "coordinates": [-59.60177309100928, -15.733993811491573]}}, {"type": "Feature", "properties": {"norad_id": 38251, "name": "BEIDOU-2 M4 (C12)", "group": "beidou", "lat": 21.633831498529897, "lon": -33.761303415828564, "alt_km": 21540.180543149207, "timestamp": "2025-12-05T07:38:19.110718+00:00", "meta": {"OBJECT_NAME": "BEIDOU-2 M4 (C12)", "OBJECT_ID": "2012-018B", "EPOCH": "2025-12-04T04:55:01.467840", "MEAN_MOTION": 1.86229385, "ECCENTRICITY": 0.0015607, "INCLINATION": 55.8289, "RA_OF_ASC_NODE": 310.6742, "ARG_OF_PERICENTER": 276.8686, "MEAN_ANOMALY": 82.9379, "EPHEMERIS_TYPE": 0, "CLASSIFICATION_TYPE": "U", "NORAD_CAT_ID": 38251, "ELEMENT_SET_NO": 999, "REV_AT_EPOCH": 9231, "BSTAR": 0, "MEAN_MOTION_DOT": -6.8e-07, "MEAN_MOTION_DDOT": 0}, "tle": {"line1": "1 38251U 12018B   25338.20487810 -.00000068  00000+0  00000+0 0  9995", "line2": "2 38251  55.8289 310.6742 0015607 276.8686  82.9379  1.86229385 92310"}}, "geometry": {"type": "Point", "coordinates": [-33.761303415828564, 21.633831498529897]}}, {"type": "Feature", "properties": {"norad_id": 38775, "name": "BEIDOU-2 M6 (C14)", "group": "beidou", "lat": -32.500299858914275, "lon": -85.63634959973878, "alt_km": 21550.159831394605, "timestamp": "2025-12-05T07:38:19.110730+00:00", "meta": {"OBJECT_NAME": "BEIDOU-2 M6 (C14)", "OBJECT_ID": "2012-050B", "EPOCH": "2025-12-02T20:12:21.766176", "MEAN_MOTION": 1.86230699, "ECCENTRICITY": 0.00108906, "INCLINATION": 56.3701, "RA_OF_ASC_NODE": 69.396, "ARG_OF_PERICENTER": 346.3051, "MEAN_ANOMALY": 13.6678, "EPHEMERIS_TYPE": 0, "CLASSIFICATION_TYPE": "U", "NORAD_CAT_ID": 38775, "ELEMENT_SET_NO": 999, "REV_AT_EPOCH": 8965, "BSTAR": 0, "MEAN_MOTION_DOT": -4.8e-07, "MEAN_MOTION_DDOT": 0}, "tle": {"line1": "1 38775U 12050B   25336.84191859 -.00000048  00000+0  00000+0 0  9993", "line2": "2 38775  56.3701  69.3960 0010890 346.3051  13.6678  1.86230699 89650"}}, "geometry": {"type": "Point", "coordinates": [-85.63634959973878, -32.500299858914275]}}]}